{
    "links": {
        "self": "http://www.neowsapp.com/rest/v1/neo/3767257?api_key=iIulBulltgU6a56xZRHN4H3l9WmuAYTsLGpBGhQ2"
    },
    "id": "3767257",
    "neo_reference_id": "3767257",
    "name": "(2017 BJ32)",
    "designation": "2017 BJ32",
    "nasa_jpl_url": "http://ssd.jpl.nasa.gov/sbdb.cgi?sstr=3767257",
    "absolute_magnitude_h": 25.1,
    "estimated_diameter": {
        "kilometers": {
            "estimated_diameter_min": 0.0253837029,
            "estimated_diameter_max": 0.0567596853
        },
        "meters": {
            "estimated_diameter_min": 25.3837029364,
            "estimated_diameter_max": 56.7596852866
        },
        "miles": {
            "estimated_diameter_min": 0.0157726969,
            "estimated_diameter_max": 0.0352688224
        },
        "feet": {
            "estimated_diameter_min": 83.279867942,
            "estimated_diameter_max": 186.2194458756
        }
    },
    "is_potentially_hazardous_asteroid": false,
    "close_approach_data": [
        {
            "close_approach_date": "2016-12-16",
            "close_approach_date_full": "2016-Dec-16 23:18",
            "epoch_date_close_approach": 1481930280000,
            "relative_velocity": {
                "kilometers_per_second": "5.0065894092",
                "kilometers_per_hour": "18023.7218729988",
                "miles_per_hour": "11199.2398493642"
            },
            "miss_distance": {
                "astronomical": "0.0782773328",
                "lunar": "30.4498824592",
                "kilometers": "11710122.256161136",
                "miles": "7276332.5619542368"
            },
            "orbiting_body": "Earth"
        }
    ],
    "orbital_data": {
        "orbit_id": "3",
        "orbit_determination_date": "2017-04-06 08:20:35",
        "first_observation_date": "2017-01-28",
        "last_observation_date": "2017-01-31",
        "data_arc_in_days": 3,
        "observations_used": 17,
        "orbit_uncertainty": "8",
        "minimum_orbit_intersection": ".0776715",
        "jupiter_tisserand_invariant": "3.825",
        "epoch_osculation": "2457783.5",
        "eccentricity": ".4469338084510035",
        "semi_major_axis": "1.893609190910408",
        "inclination": "3.657419456598169",
        "ascending_node_longitude": "129.4020994894947",
        "orbital_period": "951.7742614565274",
        "perihelion_distance": "1.047291223498996",
        "perihelion_argument": "312.627353207455",
        "aphelion_distance": "2.73992715832182",
        "perihelion_time": "2457736.303943922126",
        "mean_anomaly": "17.85148104555114",
        "mean_motion": ".37824094911863",
        "equinox": "J2000",
        "orbit_class": {
            "orbit_class_type": "AMO",
            "orbit_class_description": "Near-Earth asteroid orbits similar to that of 1221 Amor",
            "orbit_class_range": "1.017 AU < q (perihelion) < 1.3 AU"
        }
    },
    "is_sentry_object": false
}